[{"OBJECT_NAME":"NIGERIASAT-2","OBJECT_ID":"2011-044B","EPOCH":"2026-03-09T22:16:13.230624","MEAN_MOTION":14.70414983,"ECCENTRICITY":0.00315152,"INCLINATION":97.8701,"RA_OF_ASC_NODE":49.4656,"ARG_OF_PERICENTER":79.9218,"MEAN_ANOMALY":4.7488,"EPHEMERIS_TYPE":0,"CLASSIFICATION_TYPE":"U","NORAD_CAT_ID":37789,"ELEMENT_SET_NO":999,"REV_AT_EPOCH":77598,"BSTAR":0.00015542996,"MEAN_MOTION_DOT":9.0e-6,"MEAN_MOTION_DDOT":0},{"OBJECT_NAME":"SAUDISAT 4","OBJECT_ID":"2014-033G","EPOCH":"2026-03-09T23:14:52.668960","MEAN_MOTION":14.79390687,"ECCENTRICITY":0.00457103,"INCLINATION":97.7413,"RA_OF_ASC_NODE":218.6273,"ARG_OF_PERICENTER":37.8064,"MEAN_ANOMALY":322.6344,"EPHEMERIS_TYPE":0,"CLASSIFICATION_TYPE":"U","NORAD_CAT_ID":40016,"ELEMENT_SET_NO":999,"REV_AT_EPOCH":63140,"BSTAR":0.00014306526,"MEAN_MOTION_DOT":1.033e-5,"MEAN_MOTION_DDOT":0}]
